IRIDIUM 159             
1 43578U 18061K   25137.68850120  .00000042  00000+0  80733-5 0  9992
2 43578  86.4007 221.9323 0002139  90.2421 269.9020 14.34217925356694
IRIDIUM 180             
1 43922U 19002A   25137.75776530 -.00000004  00000+0 -86301-5 0  9998
2 43922  86.3986 158.8900 0002128  93.5149 266.6290 14.34217233332310
IRIDIUM 176             
1 43923U 19002B   25138.13068454  .00000470  00000+0  70694-4 0  9993
2 43923  86.6108 158.7303 0002275 107.2603 252.8863 14.72250261341129
IRIDIUM 168             
1 43924U 19002C   25137.47234817 -.00000003  00000+0 -80869-5 0  9998
2 43924  86.3990 159.0751 0002205  92.1668 267.9780 14.34217215332252
IRIDIUM 173             
1 43925U 19002D   25138.15734814  .00000025  00000+0  18567-5 0  9995
2 43925  86.3981 158.6945 0002222  95.5163 264.6286 14.34217447332341
IRIDIUM 169             
1 43926U 19002E   25138.17546826  .00000392  00000+0  12170-3 0  9991
2 43926  86.4271 190.2586 0002956 123.1438 237.0044 14.38608053333433
IRIDIUM 172             
1 43927U 19002F   25137.80216235 -.00000095  00000+0 -41119-4 0  9997
2 43927  86.3986 158.8492 0001910  89.3981 270.7433 14.34216623332290
IRIDIUM 175             
1 43928U 19002G   25137.64980986  .00000492  00000+0  74114-4 0  9991
2 43928  86.1478 113.1859 0003482  96.0934 264.0679 14.72244666341046
